start=new Date('2021-11-26T00:00:00.000Z').valueOf();
sats=[{"TLE_LINE1":"1 48010U 21024AK  21329.56390649  .00000502  00000-0  52654-4 0  9994","ELEMENT_SET_NO":"999","RCS_SIZE":"LARGE","RA_OF_ASC_NODE":"162.7512","TLE_LINE2":"2 48010  53.0509 162.7512 0002178  84.7238 275.3999 15.06387566 38609","MEAN_MOTION_DDOT":"0.0000000000000","DECAY_DATE":null,"REV_AT_EPOCH":"3860","MEAN_MOTION_DOT":"0.00000502","BSTAR":"0.00005265400000","FILE":"3223911","ARG_OF_PERICENTER":"84.7238","ECCENTRICITY":"0.00021780","OBJECT_NAME":"STARLINK-2226","REF_FRAME":"TEME","LAUNCH_DATE":"2021-03-24","MEAN_ELEMENT_THEORY":"SGP4","EPOCH":"2021-11-25T13:32:01.520736","NORAD_CAT_ID":"48010","TIME_SYSTEM":"UTC","INCLINATION":"53.0509","PERIOD":"95.593","GP_ID":"190465737","CLASSIFICATION_TYPE":"U","OBJECT_ID":"2021-024AK","OBJECT_TYPE":"PAYLOAD","CENTER_NAME":"EARTH","MEAN_ANOMALY":"275.3999","MEAN_MOTION":"15.06387566","APOAPSIS":"548.760","SITE":"AFETR","SEMIMAJOR_AXIS":"6925.387","COUNTRY_CODE":"US","EPHEMERIS_TYPE":"0","PERIAPSIS":"545.743"},{"MEAN_ELEMENT_THEORY":"SGP4","LAUNCH_DATE":"2021-03-24","EPOCH":"2021-11-25T18:51:48.994272","NORAD_CAT_ID":"48011","TIME_SYSTEM":"UTC","INCLINATION":"53.0560","GP_ID":"190492474","PERIOD":"95.592","CLASSIFICATION_TYPE":"U","OBJECT_TYPE":"PAYLOAD","OBJECT_ID":"2021-024AL","CENTER_NAME":"EARTH","MEAN_ANOMALY":"273.1416","MEAN_MOTION":"15.06394734","APOAPSIS":"548.491","SITE":"AFETR","SEMIMAJOR_AXIS":"6925.365","COUNTRY_CODE":"US","EPHEMERIS_TYPE":"0","PERIAPSIS":"545.969","TLE_LINE1":"1 48011U 21024AL  21329.78598373  .00001320  00000-0  10754-3 0  9996","RCS_SIZE":"LARGE","ELEMENT_SET_NO":"999","RA_OF_ASC_NODE":"141.7275","TLE_LINE2":"2 48011  53.0560 141.7275 0001821  86.9781 273.1416 15.06394734 38976","MEAN_MOTION_DDOT":"0.0000000000000","DECAY_DATE":null,"MEAN_MOTION_DOT":"0.00001320","REV_AT_EPOCH":"3897","BSTAR":"0.00010754000000","FILE":"3224126","ARG_OF_PERICENTER":"86.9781","ECCENTRICITY":"0.00018210","OBJECT_NAME":"STARLINK-2272","REF_FRAME":"TEME"},{"PERIAPSIS":"546.133","COUNTRY_CODE":"US","EPHEMERIS_TYPE":"0","SITE":"AFETR","SEMIMAJOR_AXIS":"6925.339","APOAPSIS":"548.275","CENTER_NAME":"EARTH","MEAN_MOTION":"15.06403135","MEAN_ANOMALY":"278.5120","OBJECT_ID":"2021-024AM","OBJECT_TYPE":"PAYLOAD","GP_ID":"190464735","PERIOD":"95.592","INCLINATION":"53.0556","CLASSIFICATION_TYPE":"U","EPOCH":"2021-11-25T09:25:53.104800","LAUNCH_DATE":"2021-03-24","MEAN_ELEMENT_THEORY":"SGP4","TIME_SYSTEM":"UTC","NORAD_CAT_ID":"48012","OBJECT_NAME":"STARLINK-2216","REF_FRAME":"TEME","ECCENTRICITY":"0.00015460","ARG_OF_PERICENTER":"81.6044","BSTAR":"0.00007507800000","FILE":"3223911","MEAN_MOTION_DOT":"0.00000837","REV_AT_EPOCH":"3926","DECAY_DATE":null,"TLE_LINE2":"2 48012  53.0556 118.4954 0001546  81.6044 278.5120 15.06403135 39265","RCS_SIZE":"LARGE","RA_OF_ASC_NODE":"118.4954","ELEMENT_SET_NO":"999","MEAN_MOTION_DDOT":"0.0000000000000","TLE_LINE1":"1 48012U 21024AM  21329.39297575  .00000837  00000-0  75078-4 0  9997"},{"APOAPSIS":"548.530","SITE":"AFETR","SEMIMAJOR_AXIS":"6925.352","EPHEMERIS_TYPE":"0","COUNTRY_CODE":"US","PERIAPSIS":"545.904","NORAD_CAT_ID":"48013","TIME_SYSTEM":"UTC","LAUNCH_DATE":"2021-03-24","MEAN_ELEMENT_THEORY":"SGP4","EPOCH":"2021-11-25T17:48:48.672000","CLASSIFICATION_TYPE":"U","INCLINATION":"53.0540","PERIOD":"95.592","GP_ID":"190493974","OBJECT_TYPE":"PAYLOAD","OBJECT_ID":"2021-024AN","MEAN_ANOMALY":"277.7228","MEAN_MOTION":"15.06398822","CENTER_NAME":"EARTH","FILE":"3224126","BSTAR":"0.00008211300000","ARG_OF_PERICENTER":"82.3976","ECCENTRICITY":"0.00018960","REF_FRAME":"TEME","OBJECT_NAME":"STARLINK-2243","TLE_LINE1":"1 48013U 21024AN  21329.74223000  .00000942  00000-0  82113-4 0  9994","MEAN_MOTION_DDOT":"0.0000000000000","RCS_SIZE":"LARGE","RA_OF_ASC_NODE":"126.9452","ELEMENT_SET_NO":"999","TLE_LINE2":"2 48013  53.0540 126.9452 0001896  82.3976 277.7228 15.06398822 39127","DECAY_DATE":null,"REV_AT_EPOCH":"3912","MEAN_MOTION_DOT":"0.00000942"},{"SEMIMAJOR_AXIS":"6927.836","SITE":"AFETR","APOAPSIS":"550.817","PERIAPSIS":"548.585","EPHEMERIS_TYPE":"0","COUNTRY_CODE":"US","CLASSIFICATION_TYPE":"U","GP_ID":"190494225","PERIOD":"95.644","INCLINATION":"53.0529","TIME_SYSTEM":"UTC","NORAD_CAT_ID":"48014","EPOCH":"2021-11-25T20:00:01.000224","MEAN_ELEMENT_THEORY":"SGP4","LAUNCH_DATE":"2021-03-24","MEAN_MOTION":"15.05588872","MEAN_ANOMALY":"57.1800","CENTER_NAME":"EARTH","OBJECT_TYPE":"PAYLOAD","OBJECT_ID":"2021-024AP","ARG_OF_PERICENTER":"80.0500","FILE":"3224126","BSTAR":"0.00019806000000","REF_FRAME":"TEME","OBJECT_NAME":"STARLINK-2283","ECCENTRICITY":"0.00016110","MEAN_MOTION_DDOT":"0.0000000000000","TLE_LINE2":"2 48014  53.0529  90.1433 0001611  80.0500  57.1800 15.05588872  3581","RCS_SIZE":"LARGE","ELEMENT_SET_NO":"999","RA_OF_ASC_NODE":"90.1433","TLE_LINE1":"1 48014U 21024AP  21329.83334491  .00002608  00000-0  19806-3 0  9991","MEAN_MOTION_DOT":"0.00002608","REV_AT_EPOCH":"358","DECAY_DATE":null},{"RCS_SIZE":"LARGE","RA_OF_ASC_NODE":"59.2430","ELEMENT_SET_NO":"999","TLE_LINE2":"2 48015  53.0543  59.2430 0005152 274.0935 234.2735 15.80381066  3687","MEAN_MOTION_DDOT":"0.0000000000000","TLE_LINE1":"1 48015U 21024AQ  21329.83334491  .00481348  00000-0  23607-2 0  9997","MEAN_MOTION_DOT":"0.00481348","REV_AT_EPOCH":"368","DECAY_DATE":null,"ARG_OF_PERICENTER":"274.0935","BSTAR":"0.00236070000000","FILE":"3224126","OBJECT_NAME":"STARLINK-2281","REF_FRAME":"TEME","ECCENTRICITY":"0.00051520","INCLINATION":"53.0543","PERIOD":"91.117","GP_ID":"190492973","CLASSIFICATION_TYPE":"U","MEAN_ELEMENT_THEORY":"SGP4","LAUNCH_DATE":"2021-03-24","EPOCH":"2021-11-25T20:00:01.000224","NORAD_CAT_ID":"48015","TIME_SYSTEM":"UTC","CENTER_NAME":"EARTH","MEAN_ANOMALY":"234.2735","MEAN_MOTION":"15.80381066","OBJECT_TYPE":"PAYLOAD","OBJECT_ID":"2021-024AQ","APOAPSIS":"332.820","SEMIMAJOR_AXIS":"6707.499","SITE":"AFETR","PERIAPSIS":"325.908","COUNTRY_CODE":"US","EPHEMERIS_TYPE":"0"},{"SITE":"AFETR","SEMIMAJOR_AXIS":"6925.394","APOAPSIS":"547.973","PERIAPSIS":"546.545","EPHEMERIS_TYPE":"0","COUNTRY_CODE":"US","CLASSIFICATION_TYPE":"U","PERIOD":"95.593","GP_ID":"190493223","INCLINATION":"53.0538","TIME_SYSTEM":"UTC","NORAD_CAT_ID":"48016","EPOCH":"2021-11-25T20:00:01.000224","MEAN_ELEMENT_THEORY":"SGP4","LAUNCH_DATE":"2021-03-24","MEAN_MOTION":"15.06385271","MEAN_ANOMALY":"275.7759","CENTER_NAME":"EARTH","OBJECT_TYPE":"PAYLOAD","OBJECT_ID":"2021-024AR","ARG_OF_PERICENTER":"79.0146","FILE":"3224126","BSTAR":"0.00072418000000","REF_FRAME":"TEME","OBJECT_NAME":"STARLINK-2284","ECCENTRICITY":"0.00010310","MEAN_MOTION_DDOT":"0.0000000000000","TLE_LINE2":"2 48016  53.0538  76.5187 0001031  79.0146 275.7759 15.06385271  3576","RCS_SIZE":"LARGE","ELEMENT_SET_NO":"999","RA_OF_ASC_NODE":"76.5187","TLE_LINE1":"1 48016U 21024AR  21329.83334491  .00010517  00000-0  72418-3 0  9999","REV_AT_EPOCH":"357","MEAN_MOTION_DOT":"0.00010517","DECAY_DATE":null},{"ARG_OF_PERICENTER":"80.2789","BSTAR":"0.01423100000000","FILE":"3223911","OBJECT_NAME":"STARLINK-2239","REF_FRAME":"TEME","ECCENTRICITY":"0.00007890","RCS_SIZE":"LARGE","RA_OF_ASC_NODE":"149.2838","ELEMENT_SET_NO":"999","TLE_LINE2":"2 48017  53.0562 149.2838 0000789  80.2789 279.8293 15.16128744 38758","MEAN_MOTION_DDOT":"0.0000000000000","TLE_LINE1":"1 48017U 21024AS  21329.14213082  .00288717  00000-0  14231-1 0  9992","REV_AT_EPOCH":"3875","MEAN_MOTION_DOT":"0.00288717","DECAY_DATE":null,"APOAPSIS":"518.100","SITE":"AFETR","SEMIMAJOR_AXIS":"6895.691","PERIAPSIS":"517.012","COUNTRY_CODE":"US","EPHEMERIS_TYPE":"0","INCLINATION":"53.0562","PERIOD":"94.979","GP_ID":"190465487","CLASSIFICATION_TYPE":"U","LAUNCH_DATE":"2021-03-24","MEAN_ELEMENT_THEORY":"SGP4","EPOCH":"2021-11-25T03:24:40.102848","NORAD_CAT_ID":"48017","TIME_SYSTEM":"UTC","CENTER_NAME":"EARTH","MEAN_ANOMALY":"279.8293","MEAN_MOTION":"15.16128744","OBJECT_TYPE":"PAYLOAD","OBJECT_ID":"2021-024AS"},{"REF_FRAME":"TEME","OBJECT_NAME":"STARLINK-2282","ECCENTRICITY":"0.00015850","ARG_OF_PERICENTER":"84.1596","FILE":"3224126","BSTAR":"0.00008393800000","REV_AT_EPOCH":"3890","MEAN_MOTION_DOT":"0.00000969","DECAY_DATE":null,"MEAN_MOTION_DDOT":"0.0000000000000","TLE_LINE2":"2 48018  53.0537 146.8630 0001585  84.1596 275.9573 15.06404327 38906","ELEMENT_SET_NO":"999","RCS_SIZE":"LARGE","RA_OF_ASC_NODE":"146.8630","TLE_LINE1":"1 48018U 21024AT  21329.75784756  .00000969  00000-0  83938-4 0  9995","PERIAPSIS":"546.103","EPHEMERIS_TYPE":"0","COUNTRY_CODE":"US","SEMIMAJOR_AXIS":"6925.335","SITE":"AFETR","APOAPSIS":"548.298","MEAN_MOTION":"15.06404327","MEAN_ANOMALY":"275.9573","CENTER_NAME":"EARTH","OBJECT_ID":"2021-024AT","OBJECT_TYPE":"PAYLOAD","CLASSIFICATION_TYPE":"U","GP_ID":"190493727","PERIOD":"95.592","INCLINATION":"53.0537","TIME_SYSTEM":"UTC","NORAD_CAT_ID":"48018","EPOCH":"2021-11-25T18:11:18.029184","LAUNCH_DATE":"2021-03-24","MEAN_ELEMENT_THEORY":"SGP4"},{"FILE":"3224126","BSTAR":"-0.00005003200000","ARG_OF_PERICENTER":"89.1709","ECCENTRICITY":"0.00018380","REF_FRAME":"TEME","OBJECT_NAME":"STARLINK-2285","TLE_LINE1":"1 48019U 21024AU  21329.72654644 -.00001027  00000-0 -50032-4 0  9992","MEAN_MOTION_DDOT":"0.0000000000000","ELEMENT_SET_NO":"999","RCS_SIZE":"LARGE","RA_OF_ASC_NODE":"137.0146","TLE_LINE2":"2 48019  53.0561 137.0146 0001838  89.1709 270.9490 15.06391815 38977","DECAY_DATE":null,"REV_AT_EPOCH":"3897","MEAN_MOTION_DOT":"-0.00001027","APOAPSIS":"548.512","SEMIMAJOR_AXIS":"6925.374","SITE":"AFETR","EPHEMERIS_TYPE":"0","COUNTRY_CODE":"US","PERIAPSIS":"545.966","NORAD_CAT_ID":"48019","TIME_SYSTEM":"UTC","LAUNCH_DATE":"2021-03-24","MEAN_ELEMENT_THEORY":"SGP4","EPOCH":"2021-11-25T17:26:13.612416","CLASSIFICATION_TYPE":"U","INCLINATION":"53.0561","GP_ID":"190492475","PERIOD":"95.593","OBJECT_TYPE":"PAYLOAD","OBJECT_ID":"2021-024AU","MEAN_ANOMALY":"270.9490","MEAN_MOTION":"15.06391815","CENTER_NAME":"EARTH"}];
